{"type": "FeatureCollection", "features": [ {"type": "Feature", "properties": {"norad_id": 58655, "name": "BEIDOU-3 M26 (C48)", "group": "beidou", "lat": 54.4800238569063, "lon": 175.29527478816254, "alt_km": 21530.16312030191, "timestamp": "2025-12-05T09:41:19.393562+00:00", "meta": {"OBJECT_NAME": "BEIDOU-3 M26 (C48)", "OBJECT_ID": "2023-207B", "EPOCH": "2025-12-03T02:34:45.227424", "MEAN_MOTION": 1.86231091, "ECCENTRICITY": 0.00034591, "INCLINATION": 55.5782, "RA_OF_ASC_NODE": 68.9139, "ARG_OF_PERICENTER": 250.5367, "MEAN_ANOMALY": 109.429, "EPHEMERIS_TYPE": 0, "CLASSIFICATION_TYPE": "U", "NORAD_CAT_ID": 58655, "ELEMENT_SET_NO": 999, "REV_AT_EPOCH": 1317, "BSTAR": 0, "MEAN_MOTION_DOT": -5e-07, "MEAN_MOTION_DDOT": 0}, "tle": {"line1": "1 58655U 23207B   25337.10746791 -.00000050  00000+0  00000+0 0  9992", "line2": "2 58655  55.5782  68.9139 0003459 250.5367 109.4290  1.86231091 13176"}}, "geometry": {"type": "Point", "coordinates": [175.29527478816254, 54.4800238569063]}}, {"type": "Feature", "properties": {"norad_id": 61186, "name": "BEIDOU-3 M25 (C47)", "group": "beidou", "lat": -28.945745003824165, "lon": 152.05541564998578, "alt_km": 21528.626306904505, "timestamp": "2025-12-05T09:41:19.393573+00:00", "meta": {"OBJECT_NAME": "BEIDOU-3 M25 (C47)", "OBJECT_ID": "2024-168B", "EPOCH": "2025-12-04T06:41:34.098432", "MEAN_MOTION": 1.86229712, "ECCENTRICITY": 0.0005502, "INCLINATION": 54.6499, "RA_OF_ASC_NODE": 309.0133, "ARG_OF_PERICENTER": 294.1783, "MEAN_ANOMALY": 248.0837, "EPHEMERIS_TYPE": 0, "CLASSIFICATION_TYPE": "U", "NORAD_CAT_ID": 61186, "ELEMENT_SET_NO": 999, "REV_AT_EPOCH": 815, "BSTAR": 0, "MEAN_MOTION_DOT": -6.9e-07, "MEAN_MOTION_DDOT": 0}, "tle": {"line1": "1 61186U 24168B   25338.27886688 -.00000069  00000+0  00000+0 0  9991", "line2": "2 61186  54.6499 309.0133 0005502 294.1783 248.0837  1.86229712  8150"}}, "geometry": {"type": "Point", "coordinates": [152.05541564998578, -28.945745003824165]}}, {"type": "Feature", "properties": {"norad_id": 61187, "name": "BEIDOU-3 M27 (C49)", "group": "beidou", "lat": -7.033404033888901, "lon": -56.08713356292867, "alt_km": 21523.429829966924, "timestamp": "2025-12-05T09:41:19.393584+00:00", "meta": {"OBJECT_NAME": "BEIDOU-3 M27 (C49)", "OBJECT_ID": "2024-168C", "EPOCH": "2025-12-04T01:54:08.310240", "MEAN_MOTION": 1.86229854, "ECCENTRICITY": 0.00022821, "INCLINATION": 54.6454, "RA_OF_ASC_NODE": 309.0039, "ARG_OF_PERICENTER": 329.4527, "MEAN_ANOMALY": 213.9234, "EPHEMERIS_TYPE": 0, "CLASSIFICATION_TYPE": "U", "NORAD_CAT_ID": 61187, "ELEMENT_SET_NO": 999, "REV_AT_EPOCH": 562, "BSTAR": 0, "MEAN_MOTION_DOT": -6.8e-07, "MEAN_MOTION_DDOT": 0}, "tle": {"line1": "1 61187U 24168C   25338.07926285 -.00000068  00000+0  00000+0 0  9997", "line2": "2 61187  54.6454 309.0039 0002282 329.4527 213.9234  1.86229854  5625"}}, "geometry": {"type": "Point", "coordinates": [-56.08713356292867, -7.033404033888901]}}]}